[{"OBJECT_NAME":"STARLINK-32556","OBJECT_ID":"2024-202P","EPOCH":"2026-03-09T11:05:13.809696","MEAN_MOTION":15.27573886,"ECCENTRICITY":0.000132,"INCLINATION":43.0009,"RA_OF_ASC_NODE":239.2027,"ARG_OF_PERICENTER":255.5118,"MEAN_ANOMALY":104.5587,"EPHEMERIS_TYPE":0,"CLASSIFICATION_TYPE":"U","NORAD_CAT_ID":61858,"ELEMENT_SET_NO":999,"REV_AT_EPOCH":7530,"BSTAR":-1.6253294e-5,"MEAN_MOTION_DOT":-7.09e-6,"MEAN_MOTION_DDOT":0},{"OBJECT_NAME":"ELECTRON KICK STAGE R\/B","OBJECT_ID":"2024-047B","EPOCH":"2026-03-09T21:11:54.433824","MEAN_MOTION":15.27307897,"ECCENTRICITY":0.00092426,"INCLINATION":97.6338,"RA_OF_ASC_NODE":46.9382,"ARG_OF_PERICENTER":20.6031,"MEAN_ANOMALY":339.5579,"EPHEMERIS_TYPE":0,"CLASSIFICATION_TYPE":"U","NORAD_CAT_ID":59225,"ELEMENT_SET_NO":999,"REV_AT_EPOCH":10999,"BSTAR":0.00091229405,"MEAN_MOTION_DOT":0.00024409,"MEAN_MOTION_DDOT":0}]
